[{"OBJECT_NAME":"STARLINK-34572","OBJECT_ID":"2025-142AA","EPOCH":"2026-03-09T23:26:58.405632","MEAN_MOTION":14.98349579,"ECCENTRICITY":0.00030239,"INCLINATION":70.0008,"RA_OF_ASC_NODE":313.7389,"ARG_OF_PERICENTER":270.4355,"MEAN_ANOMALY":89.6458,"EPHEMERIS_TYPE":0,"CLASSIFICATION_TYPE":"U","NORAD_CAT_ID":64720,"ELEMENT_SET_NO":999,"REV_AT_EPOCH":3969,"BSTAR":0.0003472454,"MEAN_MOTION_DOT":4.055e-5,"MEAN_MOTION_DDOT":0},{"OBJECT_NAME":"FENGYUN 1C DEB","OBJECT_ID":"1999-025BBM","EPOCH":"2026-03-07T23:41:19.079232","MEAN_MOTION":14.72470246,"ECCENTRICITY":0.01607389,"INCLINATION":99.1941,"RA_OF_ASC_NODE":127.0213,"ARG_OF_PERICENTER":288.175,"MEAN_ANOMALY":194.9848,"EPHEMERIS_TYPE":0,"CLASSIFICATION_TYPE":"U","NORAD_CAT_ID":30971,"ELEMENT_SET_NO":999,"REV_AT_EPOCH":970,"BSTAR":0.00062783413,"MEAN_MOTION_DOT":4.813e-5,"MEAN_MOTION_DDOT":0}]
